NORAD_CAT_ID,OBJECT_NAME,OBJECT_TYPE,EPOCH,MEAN_MOTION,ECCENTRICITY,INCLINATION,RA_OF_ASC_NODE,ARG_OF_PERICENTER,MEAN_ANOMALY,BSTAR,MEAN_MOTION_DOT,MEAN_MOTION_DDOT,TLE_LINE0,TLE_LINE1,TLE_LINE2,SEMIMAJOR_AXIS,PERIOD,APOGEE,PERIGEE,DECAYED
51891.0,STARLINK-3549,PAYLOAD,2022-11-21 19:56:22,15.08841874,0.0002175,53.2175,3.4667,37.2949,322.8194,-8.3543e-05,-1.618e-05,0.0,0 STARLINK-3549,1 51891U 22022AR  22325.83081396 -.00001618  00000-0 -83543-4 0  9999,2 51891  53.2175   3.4667 0002175  37.2949 322.8194 15.08841874 41554,6917.875,95.437,541.244,538.235,0.0
51891.0,STARLINK-3549,PAYLOAD,2022-11-22 10:14:49,15.08846762,0.0002306,53.2175,0.7904,37.0422,323.0729,5.309e-05,5.57e-06,0.0,0 STARLINK-3549,1 51891U 22022AR  22326.42696711  .00000557  00000-0  53090-4 0  9991,2 51891  53.2175   0.7904 0002306  37.0422 323.0729 15.08846762 41646,6917.86,95.437,541.32,538.129,0.0
51891.0,STARLINK-3549,PAYLOAD,2022-11-23 11:41:01,15.08825273,0.0002263,53.2178,356.0318,39.8729,320.2429,-7.0422e-06,-4e-06,0.0,0 STARLINK-3549,1 51891U 22022AR  22327.48682322 -.00000400  00000-0 -70422-5 0  9999,2 51891  53.2178 356.0318 0002263  39.8729 320.2429 15.08825273 41805,6917.925,95.438,541.356,538.225,0.0
51891.0,STARLINK-3549,PAYLOAD,2022-11-23 13:16:24,15.08825543,0.0002319,53.2171,355.735,37.2853,322.83,-7.532e-06,-4.08e-06,0.0,0 STARLINK-3549,1 51891U 22022AR  22327.55306361 -.00000408  00000-0 -75320-5 0  9993,2 51891  53.2171 355.7350 0002319  37.2853 322.8300 15.08825543 41819,6917.925,95.438,541.394,538.185,0.0
51891.0,STARLINK-3549,PAYLOAD,2022-11-24 05:10:15,15.08832086,0.0002269,53.2172,352.7609,37.2602,322.8547,0.00010408,1.368e-05,0.0,0 STARLINK-3549,1 51891U 22022AR  22328.21545884  .00001368  00000-0  10408-3 0  9990,2 51891  53.2172 352.7609 0002269  37.2602 322.8547 15.08832086 41914,6917.905,95.438,541.339,538.2,0.0
51891.0,STARLINK-3549,PAYLOAD,2022-11-24 08:21:01,15.08842615,0.000232,53.2172,352.1661,38.1568,321.9588,-4.7591e-06,-3.64e-06,0.0,0 STARLINK-3549,1 51891U 22022AR  22328.34793568 -.00000364  00000-0 -47591-5 0  9990,2 51891  53.2172 352.1661 0002320  38.1568 321.9588 15.08842615 41931,6917.871999999999,95.437,541.342,538.132,0.0
51891.0,STARLINK-3549,PAYLOAD,2022-11-24 11:31:47,15.08843255,0.0002321,53.2172,351.5713,38.5911,321.5247,5.4163e-07,-2.8e-06,0.0,0 STARLINK-3549,1 51891U 22022AR  22328.48041491 -.00000280  00000-0  54163-6 0  9996,2 51891  53.2172 351.5713 0002321  38.5911 321.5247 15.08843255 41950,6917.87,95.437,541.341,538.13,0.0
51891.0,STARLINK-3549,PAYLOAD,2022-11-24 13:07:10,15.08843814,0.0002331,53.2172,351.2739,38.4166,321.6992,6.2079e-06,-1.9e-06,0.0,0 STARLINK-3549,1 51891U 22022AR  22328.54665422 -.00000190  00000-0  62079-5 0  9993,2 51891  53.2172 351.2739 0002331  38.4166 321.6992 15.08843814 41967,6917.869000000002,95.437,541.346,538.121,0.0
51891.0,STARLINK-3549,PAYLOAD,2022-11-25 08:11:48,15.08833517,0.0002397,53.2172,347.7061,36.1364,323.9790000000001,8.348299999999999e-05,1.04e-05,0.0,0 STARLINK-3549,1 51891U 22022AR  22329.34153739  .00001040  00000-0  83483-4 0  9990,2 51891  53.2172 347.7061 0002397  36.1364 323.9790 15.08833517 42086,6917.9,95.438,541.423,538.107,0.0
51891.0,STARLINK-3549,PAYLOAD,2022-11-25 12:57:58,15.08835463,0.0002409,53.2171,346.8139,36.5954,323.5202,9.5554e-05,1.233e-05,0.0,0 STARLINK-3549,1 51891U 22022AR  22329.54025679  .00001233  00000-0  95554-4 0  9999,2 51891  53.2171 346.8139 0002409  36.5954 323.5202 15.08835463 42114,6917.894,95.438,541.4259999999998,538.0930000000002,0.0
51891.0,STARLINK-3549,PAYLOAD,2022-11-26 08:02:35,15.08842596,0.0002241,53.2172,343.2447,39.1323,320.9831,1.9098e-05,1.6e-07,0.0,0 STARLINK-3549,1 51891U 22022AR  22330.33513437  .00000016  00000-0  19098-4 0  9999,2 51891  53.2172 343.2447 0002241  39.1323 320.9831 15.08842596 42238,6917.871999999999,95.437,541.288,538.187,0.0
51891.0,STARLINK-3549,PAYLOAD,2022-11-26 11:13:21,15.08842959,0.0002486,53.2176,342.6506,36.0715,324.0445,1.8756e-05,1e-07,0.0,0 STARLINK-3549,1 51891U 22022AR  22330.46761457  .00000010  00000-0  18756-4 0  9994,2 51891  53.2176 342.6506 0002486  36.0715 324.0445 15.08842959 42254,6917.871,95.437,541.456,538.0169999999998,0.0
51891.0,STARLINK-3549,PAYLOAD,2022-11-26 17:34:53,15.08847935,0.0002385,53.2172,341.4614,36.2563,323.8591,5.5252e-05,5.91e-06,0.0,0 STARLINK-3549,1 51891U 22022AR  22330.73256890  .00000591  00000-0  55252-4 0  9990,2 51891  53.2172 341.4614 0002385  36.2563 323.8591 15.08847935 42290,6917.856,95.437,541.371,538.071,0.0
51891.0,STARLINK-3549,PAYLOAD,2022-11-27 09:28:46,15.08830315,0.0002515,53.2171,338.4881,34.0018,326.1135,-7.9954e-05,-1.56e-05,0.0,0 STARLINK-3549,1 51891U 22022AR  22331.39498300 -.00001560  00000-0 -79954-4 0  9991,2 51891  53.2171 338.4881 0002515  34.0018 326.1135 15.08830315 42392,6917.91,95.438,541.515,538.035,0.0
51891.0,STARLINK-3549,PAYLOAD,2022-11-27 17:25:42,15.08829247,0.0002592,53.2173,337.0019999999999,35.6457,324.4708,-8.8514e-05,-1.697e-05,0.0,0 STARLINK-3549,1 51891U 22022AR  22331.72618593 -.00001697  00000-0 -88514-4 0  9999,2 51891  53.2173 337.0020 0002592  35.6457 324.4708 15.08829247 42448,6917.913000000001,95.438,541.571,537.985,0.0
51891.0,STARLINK-3549,PAYLOAD,2022-11-28 09:19:33,15.08837868,0.0002529,53.2168,334.0271,36.6179,323.4985,2.5845e-05,1.23e-06,0.0,0 STARLINK-3549,1 51891U 22022AR  22332.38857856  .00000123  00000-0  25845-4 0  9998,2 51891  53.2168 334.0271 0002529  36.6179 323.4985 15.08837868 42544,6917.887,95.438,541.501,538.002,0.0
51891.0,STARLINK-3549,PAYLOAD,2022-11-28 17:16:28,15.0884109,0.0002446,53.2168,332.5402,36.2077,323.908,4.904300000000001e-05,4.92e-06,0.0,0 STARLINK-3549,1 51891U 22022AR  22332.71977569  .00000492  00000-0  49043-4 0  9994,2 51891  53.2168 332.5402 0002446  36.2077 323.9080 15.08841090 42592,6917.877,95.437,541.434,538.05,0.0
51891.0,STARLINK-3549,PAYLOAD,2022-11-29 09:10:20,15.08831538,0.0002814,53.217,329.5686,34.3067,325.8106,4.8348e-05,4.81e-06,0.0,0 STARLINK-3549,1 51891U 22022AR  22333.38218368  .00000481  00000-0  48348-4 0  9998,2 51891  53.2170 329.5686 0002814  34.3067 325.8106 15.08831538 42699,6917.906,95.438,541.7180000000002,537.825,0.0
51891.0,STARLINK-3549,PAYLOAD,2022-11-29 17:07:15,15.08837061,0.0002548,53.217,328.0799,35.6465,324.4697,0.00014873,2.079e-05,0.0,0 STARLINK-3549,1 51891U 22022AR  22333.71337722  .00002079  00000-0  14873-3 0  9991,2 51891  53.2170 328.0799 0002548  35.6465 324.4697 15.08837061 42741,6917.889,95.438,541.5169999999998,537.992,0.0
51891.0,STARLINK-3549,PAYLOAD,2022-11-30 02:39:35,15.08832032,0.0002528,53.2172,326.2959,37.9716,322.1454,1.5464e-05,-4.2e-07,0.0,0 STARLINK-3549,1 51891U 22022AR  22334.11082604 -.00000042  00000-0  15464-4 0  9999,2 51891  53.2172 326.2959 0002528  37.9716 322.1454 15.08832032 42809,6917.905,95.438,541.519,538.021,0.0
51891.0,STARLINK-3549,PAYLOAD,2022-11-30 09:01:07,15.0883228,0.000262,53.2173,325.1071,41.2658,318.8532,5.3132e-05,5.57e-06,0.0,0 STARLINK-3549,1 51891U 22022AR  22334.37578577  .00000557  00000-0  53132-4 0  9990,2 51891  53.2173 325.1071 0002620  41.2658 318.8532 15.08832280 42847,6917.904,95.438,541.581,537.956,0.0
51891.0,STARLINK-3549,PAYLOAD,2022-12-01 05:41:08,15.08835513,0.0002545,53.2175,321.2402,38.2985,321.8187,4.5293e-05,4.32e-06,0.0,0 STARLINK-3549,1 51891U 22022AR  22335.23690393  .00000432  00000-0  45293-4 0  9998,2 51891  53.2175 321.2402 0002545  38.2985 321.8187 15.08835513 42975,6917.894,95.438,541.52,537.998,0.0
51891.0,STARLINK-3549,PAYLOAD,2022-12-01 10:27:17,15.08838554,0.0002461,53.2172,320.3475,39.191,320.926,2.8445e-05,1.64e-06,0.0,0 STARLINK-3549,1 51891U 22022AR  22335.43562260  .00000164  00000-0  28445-4 0  9993,2 51891  53.2172 320.3475 0002461  39.1910 320.9260 15.08838554 43002,6917.885,95.438,541.452,538.047,0.0
51891.0,STARLINK-3549,PAYLOAD,2022-12-01 16:48:49,15.08845172,0.0002425,53.217,319.1578,37.6944,322.4218,6.7736e-05,7.9e-06,0.0,0 STARLINK-3549,1 51891U 22022AR  22335.70057649  .00000790  00000-0  67736-4 0  9994,2 51891  53.2170 319.1578 0002425  37.6944 322.4218 15.08845172 43048,6917.865,95.437,541.4069999999998,538.052,0.0
51891.0,STARLINK-3549,PAYLOAD,2022-12-02 10:18:04,15.08841923,0.0002503,53.2172,315.8869,37.6215,322.4952,5.8423e-05,6.42e-06,0.0,0 STARLINK-3549,1 51891U 22022AR  22336.42921796  .00000642  00000-0  58423-4 0  9996,2 51891  53.2172 315.8869 0002503  37.6215 322.4952 15.08841923 43151,6917.875,95.437,541.471,538.008,0.0
51891.0,STARLINK-3549,PAYLOAD,2022-12-03 05:22:42,15.08834303,0.0002562,53.2164,312.3184,41.3007,318.8179,1.5547000000000002e-05,-4.1e-07,0.0,0 STARLINK-3549,1 51891U 22022AR  22337.22410417 -.00000041  00000-0  15547-4 0  9992,2 51891  53.2164 312.3184 0002562  41.3007 318.8179 15.08834303 43277,6917.898,95.438,541.535,537.99,0.0
51891.0,STARLINK-3549,PAYLOAD,2022-12-03 08:33:29,15.088278,0.0002541,53.217,311.7238,37.5937,322.5233,-4.9076e-05,-1.069e-05,0.0,0 STARLINK-3549,1 51891U 22022AR  22337.35659105 -.00001069  00000-0 -49076-4 0  9991,2 51891  53.2170 311.7238 0002541  37.5937 322.5233 15.08827800 43292,6917.918000000002,95.438,541.5409999999998,538.025,0.0
51891.0,STARLINK-3549,PAYLOAD,2022-12-04 02:02:43,15.08838039,0.000249,53.2165,308.454,34.8682,325.2472,1.4565e-05,-5.7e-07,0.0,0 STARLINK-3549,1 51891U 22022AR  22338.08522321 -.00000057  00000-0  14565-4 0  9991,2 51891  53.2165 308.4540 0002490  34.8682 325.2472 15.08838039 43409,6917.886,95.438,541.474,538.029,0.0
51891.0,STARLINK-3549,PAYLOAD,2022-12-04 09:59:38,15.08843515,0.0002455,53.217,306.9664,36.403,323.7129,5.7722e-05,6.3e-06,0.0,0 STARLINK-3549,1 51891U 22022AR  22338.41641804  .00000630  00000-0  57722-4 0  9994,2 51891  53.2170 306.9664 0002455  36.4030 323.7129 15.08843515 43453,6917.87,95.437,541.433,538.036,0.0
